LANDSAT 9               
1 49260U 21088A   24090.47594426  .00000972  00000+0  22576-3 0  9998
2 49260  98.1929 161.4077 0001529  86.9243 273.2130 14.57111391133239
